ONEWEB-0128             
1 47274U 20100S   24126.59594111  .00000060  00000+0  13132-3 0  9995
2 47274  87.8943 144.4868 0002112 101.2186 258.9179 13.12440088163401
ONEWEB-0129             
1 47275U 20100T   24126.57530850  .00000472  00000+0  12762-2 0  9998
2 47275  87.8936 144.4605 0003591  81.0150 279.1385 13.12443618163339
ONEWEB-0130             
1 47276U 20100U   24126.60388645 -.00000249  00000+0 -72889-3 0  9997
2 47276  87.8934 144.4632 0002183  95.0356 265.1021 13.12441528163304
ONEWEB-0132             
1 47278U 20100W   24126.55304376 -.00000175  00000+0 -52052-3 0  9990
2 47278  87.8938 144.4893 0001796  95.4404 264.6929 13.12439174163233
ONEWEB-0133             
1 47279U 20100X   24126.56894314  .00000345  00000+0  92417-3 0  9994
2 47279  87.8932 144.4869 0001985  96.6597 263.4757 13.12445428163399
ONEWEB-0134             
1 47280U 20100Y   24126.53876498 -.00000427  00000+0 -12232-2 0  9995
2 47280  87.8930 144.4813 0002241  98.4329 261.7053 13.12442594163365
ONEWEB-0135             
1 47281U 20100Z   24126.58323251  .00000434  00000+0  11702-2 0  9992
2 47281  87.8936 144.4853 0002083  94.2706 265.8661 13.12445210163394
