<?xml version="1.0" encoding="UTF-8"?>
<ndm xmlns:xsi="http://www.w3.org/2001/XMLSchema-instance" xsi:noNamespaceSchemaLocation="https://sanaregistry.org/r/ndmxml_unqualified/ndmxml-2.0.0-master-2.0.xsd">
<omm id="CCSDS_OMM_VERS" version="2.0">
<header><CREATION_DATE/><ORIGINATOR/></header><body><segment><metadata><OBJECT_NAME>ONEWEB-0128</OBJECT_NAME><OBJECT_ID>2020-100S</OBJECT_ID><CENTER_NAME>EARTH</CENTER_NAME><REF_FRAME>TEME</REF_FRAME><TIME_SYSTEM>UTC</TIME_SYSTEM><MEAN_ELEMENT_THEORY>SGP4</MEAN_ELEMENT_THEORY></metadata><data><meanElements><EPOCH>2024-05-05T14:18:09.311904</EPOCH><MEAN_MOTION>13.12440088</MEAN_MOTION><ECCENTRICITY>.0002112</ECCENTRICITY><INCLINATION>87.8943</INCLINATION><RA_OF_ASC_NODE>144.4868</RA_OF_ASC_NODE><ARG_OF_PERICENTER>101.2186</ARG_OF_PERICENTER><MEAN_ANOMALY>258.9179</MEAN_ANOMALY></meanElements><tleParameters><EPHEMERIS_TYPE>0</EPHEMERIS_TYPE><CLASSIFICATION_TYPE>U</CLASSIFICATION_TYPE><NORAD_CAT_ID>47274</NORAD_CAT_ID><ELEMENT_SET_NO>999</ELEMENT_SET_NO><REV_AT_EPOCH>16340</REV_AT_EPOCH><BSTAR>.13132E-3</BSTAR><MEAN_MOTION_DOT>.6E-6</MEAN_MOTION_DOT><MEAN_MOTION_DDOT>0</MEAN_MOTION_DDOT></tleParameters></data></segment></body></omm>
<omm id="CCSDS_OMM_VERS" version="2.0">
<header><CREATION_DATE/><ORIGINATOR/></header><body><segment><metadata><OBJECT_NAME>ONEWEB-0129</OBJECT_NAME><OBJECT_ID>2020-100T</OBJECT_ID><CENTER_NAME>EARTH</CENTER_NAME><REF_FRAME>TEME</REF_FRAME><TIME_SYSTEM>UTC</TIME_SYSTEM><MEAN_ELEMENT_THEORY>SGP4</MEAN_ELEMENT_THEORY></metadata><data><meanElements><EPOCH>2024-05-05T13:48:26.654400</EPOCH><MEAN_MOTION>13.12443618</MEAN_MOTION><ECCENTRICITY>.0003591</ECCENTRICITY><INCLINATION>87.8936</INCLINATION><RA_OF_ASC_NODE>144.4605</RA_OF_ASC_NODE><ARG_OF_PERICENTER>81.0150</ARG_OF_PERICENTER><MEAN_ANOMALY>279.1385</MEAN_ANOMALY></meanElements><tleParameters><EPHEMERIS_TYPE>0</EPHEMERIS_TYPE><CLASSIFICATION_TYPE>U</CLASSIFICATION_TYPE><NORAD_CAT_ID>47275</NORAD_CAT_ID><ELEMENT_SET_NO>999</ELEMENT_SET_NO><REV_AT_EPOCH>16333</REV_AT_EPOCH><BSTAR>.12762E-2</BSTAR><MEAN_MOTION_DOT>.472E-5</MEAN_MOTION_DOT><MEAN_MOTION_DDOT>0</MEAN_MOTION_DDOT></tleParameters></data></segment></body></omm>
<omm id="CCSDS_OMM_VERS" version="2.0">
<header><CREATION_DATE/><ORIGINATOR/></header><body><segment><metadata><OBJECT_NAME>ONEWEB-0130</OBJECT_NAME><OBJECT_ID>2020-100U</OBJECT_ID><CENTER_NAME>EARTH</CENTER_NAME><REF_FRAME>TEME</REF_FRAME><TIME_SYSTEM>UTC</TIME_SYSTEM><MEAN_ELEMENT_THEORY>SGP4</MEAN_ELEMENT_THEORY></metadata><data><meanElements><EPOCH>2024-05-05T14:29:35.789280</EPOCH><MEAN_MOTION>13.12441528</MEAN_MOTION><ECCENTRICITY>.0002183</ECCENTRICITY><INCLINATION>87.8934</INCLINATION><RA_OF_ASC_NODE>144.4632</RA_OF_ASC_NODE><ARG_OF_PERICENTER>95.0356</ARG_OF_PERICENTER><MEAN_ANOMALY>265.1021</MEAN_ANOMALY></meanElements><tleParameters><EPHEMERIS_TYPE>0</EPHEMERIS_TYPE><CLASSIFICATION_TYPE>U</CLASSIFICATION_TYPE><NORAD_CAT_ID>47276</NORAD_CAT_ID><ELEMENT_SET_NO>999</ELEMENT_SET_NO><REV_AT_EPOCH>16330</REV_AT_EPOCH><BSTAR>-.72889E-3</BSTAR><MEAN_MOTION_DOT>-.249E-5</MEAN_MOTION_DOT><MEAN_MOTION_DDOT>0</MEAN_MOTION_DDOT></tleParameters></data></segment></body></omm>
<omm id="CCSDS_OMM_VERS" version="2.0">
<header><CREATION_DATE/><ORIGINATOR/></header><body><segment><metadata><OBJECT_NAME>ONEWEB-0132</OBJECT_NAME><OBJECT_ID>2020-100W</OBJECT_ID><CENTER_NAME>EARTH</CENTER_NAME><REF_FRAME>TEME</REF_FRAME><TIME_SYSTEM>UTC</TIME_SYSTEM><MEAN_ELEMENT_THEORY>SGP4</MEAN_ELEMENT_THEORY></metadata><data><meanElements><EPOCH>2024-05-05T13:16:22.980864</EPOCH><MEAN_MOTION>13.12439174</MEAN_MOTION><ECCENTRICITY>.0001796</ECCENTRICITY><INCLINATION>87.8938</INCLINATION><RA_OF_ASC_NODE>144.4893</RA_OF_ASC_NODE><ARG_OF_PERICENTER>95.4404</ARG_OF_PERICENTER><MEAN_ANOMALY>264.6929</MEAN_ANOMALY></meanElements><tleParameters><EPHEMERIS_TYPE>0</EPHEMERIS_TYPE><CLASSIFICATION_TYPE>U</CLASSIFICATION_TYPE><NORAD_CAT_ID>47278</NORAD_CAT_ID><ELEMENT_SET_NO>999</ELEMENT_SET_NO><REV_AT_EPOCH>16323</REV_AT_EPOCH><BSTAR>-.52052E-3</BSTAR><MEAN_MOTION_DOT>-.175E-5</MEAN_MOTION_DOT><MEAN_MOTION_DDOT>0</MEAN_MOTION_DDOT></tleParameters></data></segment></body></omm>
<omm id="CCSDS_OMM_VERS" version="2.0">
<header><CREATION_DATE/><ORIGINATOR/></header><body><segment><metadata><OBJECT_NAME>ONEWEB-0133</OBJECT_NAME><OBJECT_ID>2020-100X</OBJECT_ID><CENTER_NAME>EARTH</CENTER_NAME><REF_FRAME>TEME</REF_FRAME><TIME_SYSTEM>UTC</TIME_SYSTEM><MEAN_ELEMENT_THEORY>SGP4</MEAN_ELEMENT_THEORY></metadata><data><meanElements><EPOCH>2024-05-05T13:39:16.687296</EPOCH><MEAN_MOTION>13.12445428</MEAN_MOTION><ECCENTRICITY>.0001985</ECCENTRICITY><INCLINATION>87.8932</INCLINATION><RA_OF_ASC_NODE>144.4869</RA_OF_ASC_NODE><ARG_OF_PERICENTER>96.6597</ARG_OF_PERICENTER><MEAN_ANOMALY>263.4757</MEAN_ANOMALY></meanElements><tleParameters><EPHEMERIS_TYPE>0</EPHEMERIS_TYPE><CLASSIFICATION_TYPE>U</CLASSIFICATION_TYPE><NORAD_CAT_ID>47279</NORAD_CAT_ID><ELEMENT_SET_NO>999</ELEMENT_SET_NO><REV_AT_EPOCH>16339</REV_AT_EPOCH><BSTAR>.92417E-3</BSTAR><MEAN_MOTION_DOT>.345E-5</MEAN_MOTION_DOT><MEAN_MOTION_DDOT>0</MEAN_MOTION_DDOT></tleParameters></data></segment></body></omm>
<omm id="CCSDS_OMM_VERS" version="2.0">
<header><CREATION_DATE/><ORIGINATOR/></header><body><segment><metadata><OBJECT_NAME>ONEWEB-0134</OBJECT_NAME><OBJECT_ID>2020-100Y</OBJECT_ID><CENTER_NAME>EARTH</CENTER_NAME><REF_FRAME>TEME</REF_FRAME><TIME_SYSTEM>UTC</TIME_SYSTEM><MEAN_ELEMENT_THEORY>SGP4</MEAN_ELEMENT_THEORY></metadata><data><meanElements><EPOCH>2024-05-05T12:55:49.294272</EPOCH><MEAN_MOTION>13.12442594</MEAN_MOTION><ECCENTRICITY>.0002241</ECCENTRICITY><INCLINATION>87.8930</INCLINATION><RA_OF_ASC_NODE>144.4813</RA_OF_ASC_NODE><ARG_OF_PERICENTER>98.4329</ARG_OF_PERICENTER><MEAN_ANOMALY>261.7053</MEAN_ANOMALY></meanElements><tleParameters><EPHEMERIS_TYPE>0</EPHEMERIS_TYPE><CLASSIFICATION_TYPE>U</CLASSIFICATION_TYPE><NORAD_CAT_ID>47280</NORAD_CAT_ID><ELEMENT_SET_NO>999</ELEMENT_SET_NO><REV_AT_EPOCH>16336</REV_AT_EPOCH><BSTAR>-.12232E-2</BSTAR><MEAN_MOTION_DOT>-.427E-5</MEAN_MOTION_DOT><MEAN_MOTION_DDOT>0</MEAN_MOTION_DDOT></tleParameters></data></segment></body></omm>
<omm id="CCSDS_OMM_VERS" version="2.0">
<header><CREATION_DATE/><ORIGINATOR/></header><body><segment><metadata><OBJECT_NAME>ONEWEB-0135</OBJECT_NAME><OBJECT_ID>2020-100Z</OBJECT_ID><CENTER_NAME>EARTH</CENTER_NAME><REF_FRAME>TEME</REF_FRAME><TIME_SYSTEM>UTC</TIME_SYSTEM><MEAN_ELEMENT_THEORY>SGP4</MEAN_ELEMENT_THEORY></metadata><data><meanElements><EPOCH>2024-05-05T13:59:51.288864</EPOCH><MEAN_MOTION>13.12445210</MEAN_MOTION><ECCENTRICITY>.0002083</ECCENTRICITY><INCLINATION>87.8936</INCLINATION><RA_OF_ASC_NODE>144.4853</RA_OF_ASC_NODE><ARG_OF_PERICENTER>94.2706</ARG_OF_PERICENTER><MEAN_ANOMALY>265.8661</MEAN_ANOMALY></meanElements><tleParameters><EPHEMERIS_TYPE>0</EPHEMERIS_TYPE><CLASSIFICATION_TYPE>U</CLASSIFICATION_TYPE><NORAD_CAT_ID>47281</NORAD_CAT_ID><ELEMENT_SET_NO>999</ELEMENT_SET_NO><REV_AT_EPOCH>16339</REV_AT_EPOCH><BSTAR>.11702E-2</BSTAR><MEAN_MOTION_DOT>.434E-5</MEAN_MOTION_DOT><MEAN_MOTION_DDOT>0</MEAN_MOTION_DDOT></tleParameters></data></segment></body></omm>

</ndm>
